[{"OBJECT_NAME":"SITRO-AIS 8 (ANOKHIN)","OBJECT_ID":"2023-091AD","EPOCH":"2026-03-09T23:44:40.058592","MEAN_MOTION":15.29359179,"ECCENTRICITY":0.0012509,"INCLINATION":97.5169,"RA_OF_ASC_NODE":133.2823,"ARG_OF_PERICENTER":92.0171,"MEAN_ANOMALY":268.2501,"EPHEMERIS_TYPE":0,"CLASSIFICATION_TYPE":"U","NORAD_CAT_ID":57193,"ELEMENT_SET_NO":999,"REV_AT_EPOCH":14927,"BSTAR":0.00064982524,"MEAN_MOTION_DOT":0.00018494,"MEAN_MOTION_DDOT":0},{"OBJECT_NAME":"STARLINK-34881","OBJECT_ID":"2025-189AA","EPOCH":"2026-03-09T16:11:46.262400","MEAN_MOTION":15.30198799,"ECCENTRICITY":0.0001094,"INCLINATION":53.157,"RA_OF_ASC_NODE":206.8741,"ARG_OF_PERICENTER":63.0229,"MEAN_ANOMALY":297.0884,"EPHEMERIS_TYPE":0,"CLASSIFICATION_TYPE":"U","NORAD_CAT_ID":65347,"ELEMENT_SET_NO":999,"REV_AT_EPOCH":3111,"BSTAR":0.00093408853,"MEAN_MOTION_DOT":0.00027407,"MEAN_MOTION_DDOT":0}]
